NORAD_CAT_ID,OBJECT_NAME,OBJECT_TYPE,EPOCH,MEAN_MOTION,ECCENTRICITY,INCLINATION,RA_OF_ASC_NODE,ARG_OF_PERICENTER,MEAN_ANOMALY,BSTAR,MEAN_MOTION_DOT,MEAN_MOTION_DDOT,TLE_LINE0,TLE_LINE1,TLE_LINE2,SEMIMAJOR_AXIS,PERIOD,APOGEE,PERIGEE,DECAYED
55747.0,STARLINK-5539,PAYLOAD,2023-10-11 02:13:59,14.98328182,0.0002819,69.9993,304.8197,269.2304,90.8532,5.1366e-06,-3.2e-07,0.0,0 STARLINK-5539,1 55747U 23028G   23284.09305103 -.00000032  00000-0  51366-5 0  9995,2 55747  69.9993 304.8197 0002819 269.2304  90.8532 14.98328182 34137,6950.199,96.107,574.023,570.104,0.0
55747.0,STARLINK-5539,PAYLOAD,2023-10-11 11:50:48,14.98328025,0.0002627,69.9995,303.8111,262.0882,97.9978,-7.5781e-06,-1.83e-06,0.0,0 STARLINK-5539,1 55747U 23028G   23284.49361191 -.00000183  00000-0 -75781-5 0  9993,2 55747  69.9995 303.8111 0002627 262.0882  97.9978 14.98328025 34197,6950.199,96.107,573.89,570.238,0.0
55747.0,STARLINK-5539,PAYLOAD,2023-10-12 03:52:08,14.98330609,0.0002876,69.999,302.1257,268.4914,91.5916,2.946e-05,2.59e-06,0.0,0 STARLINK-5539,1 55747U 23028G   23285.16120860  .00000259  00000-0  29460-4 0  9998,2 55747  69.9990 302.1257 0002876 268.4914  91.5916 14.98330609 34291,6950.191,96.107,574.055,570.057,0.0
55747.0,STARLINK-5539,PAYLOAD,2023-10-12 10:16:40,14.98332498,0.0002788,69.9993,301.4522,267.1942,92.8898,2.8598e-05,2.48e-06,0.0,0 STARLINK-5539,1 55747U 23028G   23285.42824738  .00000248  00000-0  28598-4 0  9991,2 55747  69.9993 301.4522 0002788 267.1942  92.8898 14.98332498 34336,6950.185,96.107,573.988,570.112,0.0
55747.0,STARLINK-5539,PAYLOAD,2023-10-12 18:17:20,14.98355226,0.0002627,69.9996,300.6099,274.8475,85.2384,-0.00038599,-4.698e-05,0.0,0 STARLINK-5539,1 55747U 23028G   23285.76204068 -.00004698  00000-0 -38599-3 0  9992,2 55747  69.9996 300.6099 0002627 274.8475  85.2384 14.98355226 34382,6950.115,96.105,573.806,570.154,0.0
55747.0,STARLINK-5539,PAYLOAD,2023-10-13 03:54:09,14.98318465,0.0002785,69.9986,299.6,262.8351,97.2491,0.00029487,3.426e-05,0.0,0 STARLINK-5539,1 55747U 23028G   23286.16260816  .00003426  00000-0  29487-3 0  9992,2 55747  69.9986 299.6000 0002785 262.8351  97.2491 14.98318465 34448,6950.229,96.108,574.029,570.158,0.0
55747.0,STARLINK-5539,PAYLOAD,2023-10-13 10:18:41,14.98319051,0.0002754,69.9991,298.9277,264.7943,95.2902,0.00027123,3.144e-05,0.0,0 STARLINK-5539,1 55747U 23028G   23286.42965035  .00003144  00000-0  27123-3 0  9998,2 55747  69.9991 298.9277 0002754 264.7943  95.2902 14.98319051 34487,6950.227,96.108,574.006,570.178,0.0
55747.0,STARLINK-5539,PAYLOAD,2023-10-14 03:56:10,14.98331982,0.0002807,69.9989,297.076,268.2627,91.821,3.8712e-05,3.69e-06,0.0,0 STARLINK-5539,1 55747U 23028G   23287.16400679  .00000369  00000-0  38712-4 0  9991,2 55747  69.9989 297.0760 0002807 268.2627  91.8210 14.98331982 34591,6950.187,96.107,574.003,570.101,0.0
55747.0,STARLINK-5539,PAYLOAD,2023-10-14 10:20:42,14.98333141,0.0002798,69.9989,296.4027,268.8296,91.2542,5.4476e-05,5.57e-06,0.0,0 STARLINK-5539,1 55747U 23028G   23287.43104532  .00000557  00000-0  54476-4 0  9994,2 55747  69.9989 296.4027 0002798 268.8296  91.2542 14.98333141 34633,6950.183,96.107,573.993,570.104,0.0
55747.0,STARLINK-5539,PAYLOAD,2023-10-14 18:21:23,14.98326616,0.0002746,69.9988,295.5597,269.8164,90.2681,-3.0109e-05,-4.52e-06,0.0,0 STARLINK-5539,1 55747U 23028G   23287.76485155 -.00000452  00000-0 -30109-4 0  9996,2 55747  69.9988 295.5597 0002746 269.8164  90.2681 14.98326616 34689,6950.203,96.107,573.977,570.16,0.0
55747.0,STARLINK-5539,PAYLOAD,2023-10-15 10:22:44,14.98324545,0.000292,69.9984,293.8767,269.1813,90.9011,-6.4115e-05,-8.58e-06,0.0,0 STARLINK-5539,1 55747U 23028G   23288.43245482 -.00000858  00000-0 -64115-4 0  9992,2 55747  69.9984 293.8767 0002920 269.1813  90.9011 14.98324545 34787,6950.21,96.107,574.104,570.045,0.0
55747.0,STARLINK-5539,PAYLOAD,2023-10-15 18:23:24,14.98328516,0.000297,69.9989,293.0353,269.5342,90.5477,1.1505e-05,4.4e-07,0.0,0 STARLINK-5539,1 55747U 23028G   23288.76625109  .00000044  00000-0  11505-4 0  9996,2 55747  69.9989 293.0353 0002970 269.5342  90.5477 14.98328516 34831,6950.197,96.107,574.127,569.998,0.0
55747.0,STARLINK-5539,PAYLOAD,2023-10-16 10:24:44,14.98334453,0.0002831,69.9986,291.3519,267.9362,92.1473,9.563e-05,1.048e-05,0.0,0 STARLINK-5539,1 55747U 23028G   23289.43384510  .00001048  00000-0  95630-4 0  9995,2 55747  69.9986 291.3519 0002831 267.9362  92.1473 14.98334453 34935,6950.179,96.107,574.012,570.077,0.0
55747.0,STARLINK-5539,PAYLOAD,2023-10-17 10:26:45,14.9833094,0.0002789,69.999,288.8272,267.0419,93.0421,0.00014859,1.68e-05,0.0,0 STARLINK-5539,1 55747U 23028G   23290.43524503  .00001680  00000-0  14859-3 0  9990,2 55747  69.9990 288.8272 0002789 267.0419  93.0421 14.98330940 35080,6950.19,96.107,573.993,570.117,0.0
55747.0,STARLINK-5539,PAYLOAD,2023-10-17 16:51:16,14.9836242,0.0002674,69.9996,288.1549,270.504,89.5813,-0.00046648,-5.659e-05,0.0,0 STARLINK-5539,1 55747U 23028G   23290.70227813 -.00005659  00000-0 -46648-3 0  9997,2 55747  69.9996 288.1549 0002674 270.5040  89.5813 14.98362420 35126,6950.093,96.105,573.816,570.099,0.0
55747.0,STARLINK-5539,PAYLOAD,2023-10-18 02:28:06,14.98329211,0.0002991,69.9991,287.1445,268.5737,91.5079,-2.1524e-05,-3.5e-06,0.0,0 STARLINK-5539,1 55747U 23028G   23291.10284964 -.00000350  00000-0 -21524-4 0  9992,2 55747  69.9991 287.1445 0002991 268.5737  91.5079 14.98329211 35181,6950.195,96.107,574.139,569.982,0.0
55747.0,STARLINK-5539,PAYLOAD,2023-10-18 05:40:22,14.98327266,0.0002695,70.0005,286.8087,261.0533,99.0321,-7.6522e-06,-1.84e-06,0.0,0 STARLINK-5539,1 55747U 23028G   23291.23637050 -.00000184  00000-0 -76522-5 0  9998,2 55747  70.0005 286.8087 0002695 261.0533  99.0321 14.98327266 35205,6950.201,96.107,573.939,570.193,0.0
55747.0,STARLINK-5539,PAYLOAD,2023-10-19 02:30:06,14.98332236,0.0002878,69.9988,284.6191,268.9325,91.1504,4.9219e-06,-3.4e-07,0.0,0 STARLINK-5539,1 55747U 23028G   23292.10424588 -.00000034  00000-0  49219-5 0  9991,2 55747  69.9988 284.6191 0002878 268.9325  91.1504 14.98332236 35335,6950.186,96.107,574.051,570.051,0.0
55747.0,STARLINK-5539,PAYLOAD,2023-10-19 10:30:46,14.98335249,0.0002783,69.999,283.7776,266.1858,93.8983,3.675e-05,3.46e-06,0.0,0 STARLINK-5539,1 55747U 23028G   23292.43804251  .00000346  00000-0  36750-4 0  9996,2 55747  69.9990 283.7776 0002783 266.1858  93.8983 14.98335249 35385,6950.177,96.107,573.976,570.107,0.0
55747.0,STARLINK-5539,PAYLOAD,2023-10-20 02:32:08,14.98325394,0.0002771,69.999,282.0943,265.8258,94.2584,5.1615e-05,5.23e-06,0.0,0 STARLINK-5539,1 55747U 23028G   23293.10564835  .00000523  00000-0  51615-4 0  9996,2 55747  69.9990 282.0943 0002771 265.8258  94.2584 14.98325394 35483,6950.207,96.107,573.998,570.146,0.0
55747.0,STARLINK-5539,PAYLOAD,2023-10-20 08:56:40,14.98328266,0.000286,69.9989,281.4202,266.8565,93.2266,1.7078e-05,1.11e-06,0.0,0 STARLINK-5539,1 55747U 23028G   23293.37268727  .00000111  00000-0  17078-4 0  9994,2 55747  69.9989 281.4202 0002860 266.8565  93.2266 14.98328266 35525,6950.198,96.107,574.051,570.075,0.0
55747.0,STARLINK-5539,PAYLOAD,2023-10-21 02:34:08,14.98328776,0.0002803,69.9986,279.5685,263.7575,96.3265,2.2281e-05,1.73e-06,0.0,0 STARLINK-5539,1 55747U 23028G   23294.10704704  .00000173  00000-0  22281-4 0  9996,2 55747  69.9986 279.5685 0002803 263.7575  96.3265 14.98328776 35630,6950.197,96.107,574.01,570.114,0.0
55747.0,STARLINK-5539,PAYLOAD,2023-10-21 08:58:41,14.98330207,0.0002791,69.9989,278.8956,266.1832,93.9008,4.2034e-05,4.09e-06,0.0,0 STARLINK-5539,1 55747U 23028G   23294.37408604  .00000409  00000-0  42034-4 0  9995,2 55747  69.9989 278.8956 0002791 266.1832  93.9008 14.98330207 35679,6950.192,96.107,573.997,570.117,0.0
55747.0,STARLINK-5539,PAYLOAD,2023-10-21 16:59:21,14.98330102,0.0002797,69.9992,278.053,264.2325,95.8515,4.5824e-05,4.54e-06,0.0,0 STARLINK-5539,1 55747U 23028G   23294.70788574  .00000454  00000-0  45824-4 0  9999,2 55747  69.9992 278.0530 0002797 264.2325  95.8515 14.98330102 35729,6950.193,96.107,574.002,570.114,0.0
55747.0,STARLINK-5539,PAYLOAD,2023-10-22 02:36:09,14.98316538,0.0002714,69.9989,277.0429,264.3805,95.7044,0.00031446,3.66e-05,0.0,0 STARLINK-5539,1 55747U 23028G   23295.10844566  .00003660  00000-0  31446-3 0  9994,2 55747  69.9989 277.0429 0002714 264.3805  95.7044 14.98316538 35783,6950.235,96.108,573.986,570.213,0.0
55747.0,STARLINK-5539,PAYLOAD,2023-10-22 09:00:41,14.98329923,0.0002519,69.9993,276.3709,258.0728,102.0149,9.3758e-05,1.026e-05,0.0,0 STARLINK-5539,1 55747U 23028G   23295.37548340  .00001026  00000-0  93758-4 0  9993,2 55747  69.9993 276.3709 0002519 258.0728 102.0149 14.98329923 35823,6950.193,96.107,573.809,570.307,0.0
55747.0,STARLINK-5539,PAYLOAD,2023-10-23 09:02:43,14.98323629,0.0002449,69.9999,273.8458,260.9959,99.0923,5.4549e-05,5.58e-06,0.0,0 STARLINK-5539,1 55747U 23028G   23296.37688933  .00000558  00000-0  54549-4 0  9991,2 55747  69.9999 273.8458 0002449 260.9959  99.0923 14.98323629 35970,6950.213,96.107,573.78,570.375,0.0
55747.0,STARLINK-5539,PAYLOAD,2023-10-24 07:28:35,14.98330105,0.0002554,69.9995,271.4885,265.7765,94.3103,-2.7498e-05,-4.21e-06,0.0,0 STARLINK-5539,1 55747U 23028G   23297.31152672 -.00000421  00000-0 -27498-4 0  9996,2 55747  69.9995 271.4885 0002554 265.7765  94.3103 14.98330105 36111,6950.193,96.107,573.833,570.282,0.0
55747.0,STARLINK-5539,PAYLOAD,2023-10-25 07:30:36,14.98339308,0.0001988,69.9987,268.9624,276.0506,84.0426,0.00017404,1.985e-05,0.0,0 STARLINK-5539,1 55747U 23028G   23298.31291766  .00001985  00000-0  17404-3 0  9994,2 55747  69.9987 268.9624 0001988 276.0506  84.0426 14.98339308 36266,6950.164,96.106,573.411,570.647,0.0
55747.0,STARLINK-5539,PAYLOAD,2023-10-26 01:08:05,14.98322789,0.0002512,69.9992,267.1111,255.83,104.258,-3.0574e-05,-4.58e-06,0.0,0 STARLINK-5539,1 55747U 23028G   23299.04728889 -.00000458  00000-0 -30574-4 0  9996,2 55747  69.9992 267.1111 0002512 255.8300 104.2580 14.98322789 36378,6950.215,96.107,573.826,570.334,0.0
